OSCAR 7 (AO-7)          
1 07530U 74089B   20006.92363436 -.00000044  00000-0  88287-5 0  9994
2 07530 101.7770 337.7317 0012122 318.4445 104.4962 12.53641440 65623
UOSAT 2 (UO-11)         
1 14781U 84021B   20007.10237053  .00000100  00000-0  18333-4 0  9999
2 14781  97.5979  27.0873 0008985  24.3405 335.8232 14.83133089928762
LUSAT (LO-19)           
1 20442U 90005G   20006.81759361 -.00000006  00000-0  14340-4 0  9997
2 20442  98.6732 313.6954 0010658 274.8013  85.1954 14.32942169565329
ITAMSAT (IO-26)         
1 22826U 93061D   20006.93697858  .00000008  00000-0  20885-4 0  9997
2 22826  98.9118   5.3087 0009861 115.8199 244.4001 14.30409716370818
RADIO ROSTO (RS-15)     
1 23439U 94085A   20006.90756037 -.00000048  00000-0 -14691-3 0  9990
2 23439  64.8147 149.1131 0146048  73.6047 288.0876 11.27569423 30690
JAS-2 (FO-29)           
1 24278U 96046B   20006.86196413 -.00000033  00000-0  84028-7 0  9990
2 24278  98.5648 138.1500 0351317  76.0416 287.9526 13.53095194154893
TECHSAT 1B (GO-32)      
1 25397U 98043D   20007.09813172 -.00000030  00000-0  62174-5 0  9999
2 25397  98.7118 309.9843 0001779 133.1229 227.0099 14.23677211116677
ISS (ZARYA)             
1 25544U 98067A   20007.38452375  .00000909  00000-0  24276-4 0  9999
2 25544  51.6455  69.0865 0005143 108.6341 345.4895 15.49544474206933
PCSAT (NO-44)           
1 26931U 01043C   20006.97116110 -.00000011  00000-0  27549-4 0  9997
2 26931  67.0494 201.6945 0006787 263.2864  96.7465 14.30563782953901
SAUDISAT 1C (SO-50)     
1 27607U 02058C   20006.85137163 -.00000009  00000-0  19567-4 0  9991
2 27607  64.5544 151.5115 0067408 216.3476 143.3039 14.75600227916738
CUTE-1 (CO-55)          
1 27844U 03031E   20006.91927986  .00000039  00000-0  36998-4 0  9992
2 27844  98.6833  17.0987 0010179 160.4727 199.6843 14.22214492856999
CUBESAT XI-IV (CO-57)   
1 27848U 03031J   20006.82852152  .00000031  00000-0  33983-4 0  9991
2 27848  98.6906  17.5472 0009871 172.2276 187.9056 14.21804609856861
MOZHAYETS 4 (RS-22)     
1 27939U 03042A   20007.17273715  .00000048  00000-0  17123-4 0  9991
2 27939  98.0656 144.3999 0013890 143.0703 217.1458 14.66828903870228
CUBESAT XI-V            
1 28895U 05043F   20006.92579972  .00000080  00000-0  24267-4 0  9995
2 28895  97.9849 148.0864 0018012  75.1648 285.1549 14.63726977756839
CUTE-1.7+APD II (CO-65) 
1 32785U 08021C   20006.84623397  .00000220  00000-0  29305-4 0  9993
2 32785  97.5606   2.1467 0012015 317.8073  42.2219 14.88399868633688
DELFI-C3 (DO-64)        
1 32789U 08021G   20006.84951236  .00000773  00000-0  55008-4 0  9995
2 32789  97.4407  55.1739 0013072 147.8500 212.3528 15.07370697637318
SEEDS II (CO-66)        
1 32791U 08021J   20007.05928892  .00000279  00000-0  33614-4 0  9994
2 32791  97.5332   8.4717 0011839 285.8357  74.1557 14.90947058634267
YUBILEINY (RS-30)       
1 32953U 08025A   20007.06145403  .00000037  00000-0  19437-3 0  9996
2 32953  82.5039  18.9062 0020170  50.4191 309.8665 12.43093496527458
KKS-1 (KISEKI)          
1 33499U 09002H   20007.17280139  .00000095  00000-0  22030-4 0  9994
2 33499  98.3321 217.1803 0007935 284.3183  75.7144 14.75493938589082
SWISSCUBE               
1 35932U 09051B   20007.00678246  .00000094  00000-0  32247-4 0  9994
2 35932  98.6001 184.1310 0006560 264.1211  95.9238 14.56346206546222
BEESAT-1                
1 35933U 09051C   20006.72308220  .00000102  00000-0  33928-4 0  9992
2 35933  98.6012 185.6715 0004739 281.0723  78.9941 14.56427826546299
ITUPSAT1                
1 35935U 09051E   20006.76027638  .00000070  00000-0  27268-4 0  9993
2 35935  98.6122 185.9301 0007043 278.2365  81.8032 14.55579782546009
XIWANG-1 (HOPE-1)       
1 36122U 09072B   20006.75593344 -.00000059  00000-0 -45082-4 0  9999
2 36122 100.0816   4.6977 0006981 236.6162 123.4284 13.16352524483466
JUGNU                   
1 37839U 11058B   20006.83584885  .00000301  00000-0  18731-4 0  9990
2 37839  19.9592 188.9356 0018944  35.5803  92.1635 14.12668316425877
SRMSAT                  
1 37841U 11058D   20006.88490698  .00000304  00000-0  21535-4 0  9995
2 37841  19.9708 249.6037 0011810 257.5107 192.0320 14.10647292425181
M-CUBED & EXP-1 PRIME   
1 37855U 11061F   20006.55072297  .00001102  00000-0  62411-4 0  9994
2 37855 101.7267  10.9449 0172125 198.2489 161.2497 15.05920595446689
STRAND-1                
1 39090U 13009E   20006.83969090  .00000032  00000-0  26433-4 0  9993
2 39090  98.4677 214.2138 0010044  52.4715 307.7382 14.35112854359380
SOMP                    
1 39134U 13015E   20006.82517625  .00001280  00000-0  66498-4 0  9992
2 39134  64.8633  85.3447 0038009 270.8214  88.8558 15.20633308370943
BEESAT-3                
1 39135U 13015F   20006.65032362  .00001036  00000-0  59763-4 0  9990
2 39135  64.8666 107.0825 0044528 272.2677  87.3351 15.17835947370500
BEESAT-2                
1 39136U 13015G   20006.89632369  .00000888  00000-0  53958-4 0  9994
2 39136  64.8716 110.7253 0031021 280.1439  79.6188 15.17259619370453
ZACUBE-1 (TSHEPISOSAT)  
1 39417U 13066B   20006.76634912  .00000219  00000-0  33619-4 0  9994
2 39417  97.5611  13.8917 0060404  91.4225 269.3909 14.81202632330958
GOMX-1                  
1 39430U 13066Q   20007.17141675  .00000205  00000-0  46362-4 0  9998
2 39430  97.7727 315.6687 0150844 336.4333  23.0007 14.59335432326139
CUBEBUG-2 (LO-74)       
1 39440U 13066AA  20006.92188371  .00000179  00000-0  31649-4 0  9997
2 39440  97.6157 358.5644 0080911 147.1760 213.4514 14.75939494328601
FUNCUBE-1 (AO-73)       
1 39444U 13066AE  20006.72177051  .00000275  00000-0  39869-4 0  9991
2 39444  97.5573  15.9739 0059507  84.6920 276.1080 14.82039699329853
UWE-3                   
1 39446U 13066AG  20006.91811959  .00000190  00000-0  31691-4 0  9997
2 39446  97.5880   5.7404 0071256 119.5561 241.2778 14.78474298328552
SPROUT                  
1 39770U 14029E   20007.18378799  .00000336  00000-0  43027-4 0  9995
2 39770  97.8912 114.2842 0009749 136.2962 223.9051 14.87563199304938
UNISAT-6                
1 40012U 14033C   20007.17162978  .00000139  00000-0  27953-4 0  9991
2 40012  97.7293 229.7455 0058619 163.1056 197.2123 14.74052746298511
DUCHIFAT-1              
1 40021U 14033M   20007.05723217  .00000257  00000-0  31966-4 0  9997
2 40021  97.9343 297.4027 0014261 101.2367 259.0454 14.90779777301695
QB50P1                  
1 40025U 14033R   20006.84028944  .00000180  00000-0  25066-4 0  9991
2 40025  97.9115 291.2205 0013713 111.7251 248.5427 14.89049093300898
NUDT-PHONESAT           
1 40900U 15049B   20007.12082291  .00001796  00000-0  78201-4 0  9991
2 40900  97.4348  19.5227 0012282 187.1959 245.9382 15.23473675238471
ZDPS 2A                 
1 40901U 15049C   20007.19229347  .00000787  00000-0  41955-4 0  9999
2 40901  97.4615  15.1350 0012206 213.6394 213.0206 15.18012670237953
ZDPS 2B                 
1 40902U 15049D   20007.10547931  .00000887  00000-0  47002-4 0  9993
2 40902  97.4578  12.3919 0012391 210.8591 221.9304 15.17929584237918
XW-2A                   
1 40903U 15049E   20007.09546225  .00001706  00000-0  41251-4 0  9998
2 40903  97.3126  55.7644 0014723 128.0105 316.0479 15.42493642241446
KAITUO 1A               
1 40904U 15049F   20007.11117475  .00000362  00000-0  22569-4 0  9991
2 40904  97.4723  10.7345 0013318 222.7485 224.0680 15.15558931237655
2015-049G               
1 40905U 15049G   20007.07041313  .00000325  00000-0  21224-4 0  9990
2 40905  97.4785   8.0438 0014417 218.8670 211.6122 15.14431159237508
XW-2C                   
1 40906U 15049H   20006.75518781  .00000579  00000-0  33677-4 0  9999
2 40906  97.4729  10.5678 0013605 213.6954 318.2588 15.15884480237608
XW-2D                   
1 40907U 15049J   20007.01666322  .00000380  00000-0  23160-4 0  9991
2 40907  97.4717  10.5127 0013090 209.6980 213.1091 15.16091751237667
LILACSAT-2              
1 40908U 15049K   20007.11428950  .00000391  00000-0  25175-4 0  9996
2 40908  97.4854   9.1856 0014650 219.0256 206.1953 15.13929657237433
XW-2F                   
1 40910U 15049M   20007.11291528  .00000815  00000-0  43818-4 0  9993
2 40910  97.4656  12.9264 0013941 200.2336 232.3003 15.17633535237713
XW-2B                   
1 40911U 15049N   20007.06046906  .00000735  00000-0  41659-4 0  9998
2 40911  97.4728  11.2370 0013056 210.5238 221.5199 15.16023008237562
KAITUO 1B               
1 40912U 15049P   20007.09703257  .00000841  00000-0  42200-4 0  9992
2 40912  97.4504  16.8659 0014647 179.9180 251.6352 15.19986465238055
TIANWANG 1C (TW-1C)     
1 40926U 15051B   20007.12531185  .00015080  00000-0  18607-3 0  9997
2 40926  97.1103  58.2928 0006738 353.5699  61.5420 15.60237287241671
TIANWANG 1A (TW-1A)     
1 40928U 15051D   20007.18545407  .00002426  00000-0  59181-4 0  9990
2 40928  97.1275  38.8983 0012464  62.4368  10.6917 15.41767005240366
LAPAN-A2                
1 40931U 15052B   20002.58753715  .00000638  00000-0 -24146-6 0  9996
2 40931   5.9928  85.5229 0013528  76.7647 283.7111 14.76622055230555
E-ST@R-II               
1 41459U 16025D   20007.23127169  .00000654  00000-0  37235-4 0  9996
2 41459  98.0987 108.9417 0166937  37.8516 323.4391 15.05958659203023
AAUSAT 4                
1 41460U 16025E   20007.00821530  .00001500  00000-0  77624-4 0  9993
2 41460  98.0978 110.4995 0156344  29.3850 331.6071 15.08062533203152
NUSAT-1 (FRESCO)        
1 41557U 16033B   20007.21545522  .00001103  00000-0  43513-4 0  9995
2 41557  97.4110  98.5134 0012272 306.0525  53.9577 15.27643960201003
BEESAT-4                
1 41619U 16040W   20006.89834763  .00001210  00000-0  53393-4 0  9999
2 41619  97.3434  70.1126 0012123  39.5766 320.6354 15.23590386184643
CAS-2T & KS-1Q          
1 41847U 16066G   20007.15841779  .00000044  00000-0  17362-4 0  9995
2 41847  98.6799  55.8267 0365620 352.5701   7.0153 14.38031954166098
NAYIF-1 (EO-88)         
1 42017U 17008BX  20006.82548604  .00001392  00000-0  56856-4 0  9994
2 42017  97.3815  76.6288 0006618 162.4416 197.7052 15.26035232160749
MAX VALIER SAT          
1 42778U 17036P   20006.87089957  .00000805  00000-0  37864-4 0  9991
2 42778  97.3293  64.8107 0011094 228.7242 131.3040 15.22335783140995
RADFXSAT (FOX-1B)       
1 43017U 17073E   20007.00144631  .00000291  00000-0  28536-4 0  9991
2 43017  97.7266 285.4780 0256533 219.3364 138.8969 14.78764863115151
FOX-1D (AO-92)          
1 43137U 18004AC  20006.71218781  .00000939  00000-0  41985-4 0  9996
2 43137  97.4663  78.8405 0007601 266.6771  93.3597 15.23808000110269
ES'HAIL 2               
1 43700U 18090A   20006.79077062  .00000162  00000-0  00000+0 0  9996
2 43700   0.0189  34.1673 0001954 276.1093 106.0243  1.00270929  4320
FOX-1CLIFF (AO-95)      
1 43770U 18099N   20006.72520761  .00000103  00000-0  14707-4 0  9993
2 43770  97.7256  80.7951 0015042  25.6286 334.5677 14.94883996 59606
ITASAT 1                
1 43786U 18099AE  20007.16134637  .00000311  00000-0  33503-4 0  9998
2 43786  97.7273  81.5272 0015586  18.5468 341.6317 14.95241210 59689
JY1SAT (JO-97)          
1 43803U 18099AX  20007.19386657  .00000170  00000-0  20625-4 0  9996
2 43803  97.7229  81.4201 0015415  18.4322 341.7454 14.95393029 59689
PSAT2 (NO-104)          
1 44354U 19036R   20006.66000961  .00013725  00000-0  20730-3 0  9998
2 44354  28.5319   7.3178 0376024  16.3916 344.8476 15.00501447 29312
BRICSAT2 (NO-103)       
1 44355U 19036S   20006.70779761  .00025308  00000-0  37712-3 0  9993
2 44355  28.5322   4.7920 0364939  20.5273 340.9579 15.03257440 29346
JAISAT-1                
1 44419U 19038F   20006.82336494  .00000859  00000-0  52878-4 0  9996
2 44419  97.5169 330.5865 0021138 335.2996  24.7221 15.12508466 28010
DUCHIFAT-3              
1 44854U 19089C   20007.16383364  .00000250  00000-0  26682-4 0  9990
2 44854  36.9685 337.3602 0007845 194.9171 165.1357 14.98943011  3937
